[{"OBJECT_NAME":"LKW-3","OBJECT_ID":"2018-006A","EPOCH":"2026-03-09T23:35:48.740928","MEAN_MOTION":15.33087407,"ECCENTRICITY":0.00022503,"INCLINATION":97.6481,"RA_OF_ASC_NODE":225.9034,"ARG_OF_PERICENTER":308.148,"MEAN_ANOMALY":51.9559,"EPHEMERIS_TYPE":0,"CLASSIFICATION_TYPE":"U","NORAD_CAT_ID":43146,"ELEMENT_SET_NO":999,"REV_AT_EPOCH":45350,"BSTAR":0.00042518021,"MEAN_MOTION_DOT":0.00013518,"MEAN_MOTION_DDOT":0},{"OBJECT_NAME":"STARLINK-33798","OBJECT_ID":"2025-069S","EPOCH":"2026-03-09T12:21:44.258976","MEAN_MOTION":15.30175783,"ECCENTRICITY":0.00013459,"INCLINATION":53.1588,"RA_OF_ASC_NODE":143.5823,"ARG_OF_PERICENTER":106.1382,"MEAN_ANOMALY":253.9767,"EPHEMERIS_TYPE":0,"CLASSIFICATION_TYPE":"U","NORAD_CAT_ID":63449,"ELEMENT_SET_NO":999,"REV_AT_EPOCH":5310,"BSTAR":0.00087810367,"MEAN_MOTION_DOT":0.00025718,"MEAN_MOTION_DDOT":0}]
